OBJECT_NAME,OBJECT_ID,EPOCH,MEAN_MOTION,ECCENTRICITY,INCLINATION,RA_OF_ASC_NODE,ARG_OF_PERICENTER,MEAN_ANOMALY,EPHEMERIS_TYPE,CLASSIFICATION_TYPE,NORAD_CAT_ID,ELEMENT_SET_NO,REV_AT_EPOCH,BSTAR,MEAN_MOTION_DOT,MEAN_MOTION_DDOT
GSAT0215 (GALILEO 19),2017-079A,2026-06-07T15:07:36.425280,1.70474655,.00032715,55.0756,221.7698,266.5445,93.5000,0,U,43055,999,5282,0,.42E-6,0
GSAT0216 (GALILEO 20),2017-079B,2026-06-07T08:02:11.841792,1.70474847,.00041563,55.0761,221.7781,276.5849,83.4502,0,U,43056,999,5283,0,.42E-6,0
GSAT0217 (GALILEO 21),2017-079C,2026-06-09T07:34:09.537888,1.70474233,.00038945,55.0739,221.7216,284.8595,75.1799,0,U,43057,999,5285,0,.46E-6,0
GSAT0218 (GALILEO 22),2017-079D,2026-06-08T08:41:42.861696,1.70474754,.00041319,55.0742,221.7453,273.2781,86.7561,0,U,43058,999,5286,0,.44E-6,0
BEIDOU-3 M7 (C27),2018-003A,2026-06-09T07:06:24.389568,1.86228375,.0004933,54.3360,302.5906,91.8835,268.1636,0,U,43107,999,5720,0,-.61E-6,0
BEIDOU-3 M8 (C28),2018-003B,2026-06-07T15:07:25.492224,1.86231337,.00024505,54.3300,302.6304,266.3856,93.5786,0,U,43108,999,5718,0,-.56E-6,0
BEIDOU-3 M4 (C22),2018-018A,2026-06-09T03:31:38.500896,1.86231369,.00076485,56.6432,63.4146,17.0945,342.9557,0,U,43207,999,5659,0,-.46E-6,0
BEIDOU-3 M3 (C21),2018-018B,2026-06-08T03:20:55.965696,1.86231220,.00088128,56.6424,63.4518,338.8483,21.1416,0,U,43208,999,5657,0,-.42E-6,0
BEIDOU-3 M9 (C29),2018-029A,2026-06-08T21:27:44.822592,1.86228405,.00008433,54.2027,300.2397,145.3381,214.6591,0,U,43245,999,5574,0,-.59E-6,0
BEIDOU-3 M10 (C30),2018-029B,2026-06-08T19:53:17.074176,1.86229508,.00040056,54.1998,300.2680,38.0301,321.9899,0,U,43246,999,5572,0,-.59E-6,0
IRNSS-1I,2018-035A,2026-06-08T23:30:17.138592,1.00270374,.00177953,28.7349,74.3250,182.7620,47.7314,0,U,43286,999,2999,0,.92E-6,0
COSMOS 2527 (756),2018-053A,2026-06-09T02:34:22.734912,2.13102340,.0007419,65.5731,74.1771,241.4436,118.5010,0,U,43508,999,6210,0,-.18E-6,0
BEIDOU-2 IGSO-7 (C16),2018-057A,2026-06-09T10:26:21.166080,1.00253775,.01048762,55.1933,163.1254,237.9492,123.8731,0,U,43539,999,2905,0,.36E-6,0
GSAT0221 (GALILEO 25),2018-060A,2026-06-08T20:28:04.372032,1.70475958,.00026936,57.1744,342.0053,307.8852,52.1066,0,U,43564,999,4902,0,-.62E-6,0
GSAT0222 (GALILEO 26),2018-060B,2026-06-09T01:44:21.620544,1.70475681,.00019133,57.1770,342.0033,251.8832,108.1122,0,U,43565,999,4907,0,-.62E-6,0
GSAT0219 (GALILEO 23),2018-060C,2026-06-07T12:48:24.818976,1.70475974,.00022833,57.1754,342.0461,330.3501,29.6519,0,U,43566,999,4902,0,-.63E-6,0
GSAT0220 (GALILEO 24),2018-060D,2026-06-08T08:11:18.198240,1.70475807,.00022536,57.1759,342.0253,317.6959,42.3025,0,U,43567,999,4902,0,-.62E-6,0
BEIDOU-3 M5 (C23),2018-062A,2026-06-07T10:36:21.385152,1.86228982,.00056063,54.0850,182.6354,288.5273,71.4667,0,U,43581,999,5345,0,.98E-6,0
BEIDOU-3 M6 (C24),2018-062B,2026-06-07T20:12:54.751104,1.86227922,.00047889,54.0845,182.6111,9.6805,350.3844,0,U,43582,999,5346,0,.103E-5,0
BEIDOU-3 M12 (C26),2018-067A,2026-06-08T07:37:25.949280,1.86227940,.0007741,54.1798,181.3412,30.1174,329.9822,0,U,43602,999,5295,0,.11E-5,0
BEIDOU-3 M11 (C25),2018-067B,2026-06-06T20:12:12.929184,1.86227396,.00044751,54.1771,181.3547,14.0592,346.0057,0,U,43603,999,5295,0,.93E-6,0
BEIDOU-3 M13 (C32),2018-072A,2026-06-06T06:14:03.962976,1.86231624,.00076633,56.6156,63.0201,326.1226,33.8571,0,U,43622,999,5245,0,-.38E-6,0
BEIDOU-3 M14 (C33),2018-072B,2026-06-06T03:00:17.815680,1.86231665,.0006283,56.6172,63.0188,355.7751,4.2482,0,U,43623,999,5244,0,-.38E-6,0
BEIDOU-3 M16 (C35),2018-078A,2026-06-08T10:17:01.510944,1.86232291,.00073342,54.0984,300.2932,40.8019,319.2453,0,U,43647,999,5199,0,-.58E-6,0
BEIDOU-3 M15 (C34),2018-078B,2026-06-01T13:51:31.248864,1.86232507,.00045363,54.1007,300.5335,56.3394,303.6792,0,U,43648,999,5188,0,-.74E-6,0
BEIDOU-3 G1 (C59),2018-085A,2026-06-09T15:08:43.413792,1.00271457,.0008446,2.8480,97.5932,347.6362,199.9363,0,U,43683,999,2798,0,-.91E-6,0
COSMOS 2529 (757),2018-086A,2026-06-09T04:53:26.485728,2.13102176,.0011758,64.2943,192.8640,256.1207,103.8195,0,U,43687,999,5911,0,.105E-5,0
BEIDOU-3 M17 (C36),2018-093A,2026-06-07T15:25:06.551616,1.86228480,.00100225,54.1686,182.6203,291.3761,66.7230,0,U,43706,999,5135,0,.101E-5,0
BEIDOU-3 M18 (C37),2018-093B,2026-06-09T02:51:57.234816,1.86226825,.0007926,54.1692,182.5623,320.0800,39.9208,0,U,43707,999,5138,0,.117E-5,0
GPS BIII-1  (PRN 04),2018-109A,2026-06-09T06:13:03.945216,2.00561284,.00382061,55.6769,92.5001,198.1113,321.2125,0,U,43873,999,5491,0,.7E-7,0
BEIDOU-3 IGSO-1 (C38),2019-023A,2026-06-06T22:54:10.040832,1.00294886,.00254341,58.6799,37.7569,225.6649,92.8731,0,U,44204,999,710,0,-.215E-5,0
